STARLINK-2031           
1 47648U 21012AE  23265.03675228  .00024553  00000+0  16593-2 0  9990
2 47648  53.0530 130.3201 0001319  86.8156 273.2984 15.06449585144679
STARLINK-2032           
1 47649U 21012AF  23265.04043762  .00028792  00000+0  19411-2 0  9995
2 47649  53.0534 130.3027 0001337  88.5716 271.5426 15.06454651144673
STARLINK-2033           
1 47650U 21012AG  23264.89302043  .00024487  00000+0  16578-2 0  9997
2 47650  53.0527 130.9606 0001727  82.3349 277.7836 15.06384425144127
STARLINK-2035           
1 47651U 21012AH  23265.06439988  .00030376  00000+0  20459-2 0  9994
2 47651  53.0525 150.2423 0001254 111.4255 248.6868 15.06462902144391
STARLINK-2036           
1 47652U 21012AJ  23264.95382523  .00029081  00000+0  19606-2 0  9997
2 47652  53.0528 150.6936 0001330  82.7478 277.3662 15.06449186143850
STARLINK-2037           
1 47653U 21012AK  23264.94830592  .00016249  00000+0  11069-2 0  9998
2 47653  53.0535 130.7135 0001316 101.1517 258.9620 15.06410074144644
STARLINK-2038           
1 47654U 21012AL  23265.09019847  .00026958  00000+0  18191-2 0  9999
2 47654  53.0536 150.0808 0001368  86.8802 273.2343 15.06454326144393
STARLINK-2039           
1 47655U 21012AM  23264.95013668  .00022416  00000+0  15172-2 0  9990
2 47655  53.0534 150.7078 0001317  90.6332 269.4808 15.06444070143851
STARLINK-2040           
1 47656U 21012AN  23265.03307370  .00020542  00000+0  13925-2 0  9999
2 47656  53.0534 130.3342 0001454  87.5789 272.5366 15.06437738144660
STARLINK-2041           
1 47657U 21012AP  23265.10493991  .00027610  00000+0  18621-2 0  9994
2 47657  53.0542 150.0115 0001516  81.8649 278.2512 15.06461288144391
STARLINK-2042           
1 47658U 21012AQ  23265.09757033  .00027620  00000+0  18629-2 0  9992
2 47658  53.0538 150.0438 0001273  87.5966 272.5169 15.06458815144410
STARLINK-2043           
1 47659U 21012AR  23265.52146597  .00010691  00000+0  73541-3 0  9993
2 47659  53.0548  28.1405 0000532  72.4105 287.6942 15.06406144146119
STARLINK-2044           
1 47660U 21012AS  23265.54088340  .00026771  00000+0  18070-2 0  9999
2 47660  53.0552  18.6826 0001421  69.3118 290.8023 15.06447305146259
STARLINK-2051           
1 47661U 21012AT  23265.06257877  .00020018  00000+0  13593-2 0  9993
2 47661  53.0534 130.2042 0001518  73.2613 286.8542 15.06390939144655
STARLINK-2052           
1 47662U 21012AU  23265.04318671  .00001907  00000+0  14688-3 0  9995
2 47662  53.0550 130.2882 0001383  97.8388 262.2758 15.06396443144672
STARLINK-2053           
1 47663U 21012AV  23265.57124782  .00008697  00000+0  60177-3 0  9999
2 47663  53.0552  48.2372 0001341  96.1726 263.9416 15.06416082145862
STARLINK-2054           
1 47664U 21012AW  23265.04413768  .00008473  00000+0  58701-3 0  9999
2 47664  53.0544 130.2869 0001435 101.8612 258.2538 15.06401980144670
STARLINK-2056           
1 47665U 21012AX  23265.02432599  .00016161  00000+0  11007-2 0  9991
2 47665  53.0558 125.4200 0001454 108.8745 251.2402 15.06421631144731
STARLINK-2057           
1 47666U 21012AY  23265.02067642  .00011409  00000+0  78374-3 0  9996
2 47666  53.0532 125.7471 0001247  86.3586 273.7545 15.06393602144733
STARLINK-2058           
1 47667U 21012AZ  23265.07545235  .00033704  00000+0  22668-2 0  9997
2 47667  53.0523 150.1453 0001367  95.8789 264.2355 15.06465030144378
STARLINK-2059           
1 47668U 21012BA  23265.05149805  .00017809  00000+0  12104-2 0  9991
2 47668  53.0542 130.2513 0001349  91.5029 268.6115 15.06432429144677
STARLINK-2062           
1 47670U 21012BC  23264.99989617  .00014300  00000+0  97634-3 0  9994
2 47670  53.0541 130.4834 0001343  88.2383 271.8760 15.06422993144652
STARLINK-2064           
1 47671U 21012BD  23264.98147805  .00007769  00000+0  53986-3 0  9992
2 47671  53.0549 130.5683 0001433  91.7976 268.3177 15.06401476144668
STARLINK-2065           
1 47672U 21012BE  23265.02663800  .00020752  00000+0  14082-2 0  9997
2 47672  53.0538 120.3638 0001162  87.2927 272.8195 15.06392923144788
STARLINK-2066           
1 47673U 21012BF  23265.06992599  .00026477  00000+0  17872-2 0  9992
2 47673  53.0533 130.1679 0001276  88.5379 271.5756 15.06452799144663
STARLINK-2067           
1 47674U 21012BG  23264.95104862  .00022452  00000+0  15221-2 0  9993
2 47674  53.0527 130.6937 0000784  67.8726 292.2346 15.06382160144656
STARLINK-2078           
1 47675U 21012BH  23265.01095280  .00027768  00000+0  18735-2 0  9993
2 47675  53.0516 130.4330 0001195 122.9313 237.1791 15.06444728144664
STARLINK-2083           
1 47676U 21012BJ  23265.53711942  .00025108  00000+0  16964-2 0  9999
2 47676  53.0550  18.0725 0001426  68.6691 291.4450 15.06446250146269
STARLINK-2090           
1 47677U 21012BK  23265.06345679  .00026367  00000+0  17803-2 0  9999
2 47677  53.0540 150.1909 0001463  82.6736 277.4419 15.06443630144387
STARLINK-2095           
1 47679U 21012BM  23265.09292085  .00001316  00000+0  10721-3 0  9996
2 47679  53.0545 150.0661 0001222  79.6093 280.5034 15.06397389144403
STARLINK-2068           
1 47722U 21017A   23265.33489351  .00013617  00000+0  93109-3 0  9999
2 47722  53.0540 274.2224 0001401 101.3054 258.8092 15.06406695142434
STARLINK-2107           
1 47723U 21017B   23265.20999213  .00013908  00000+0  95014-3 0  9999
2 47723  53.0534 209.5410 0001533  83.8319 276.2845 15.06424489143296
STARLINK-2116           
1 47724U 21017C   23265.24685109  .00024035  00000+0  16252-2 0  9999
2 47724  53.0535 209.3758 0001328 100.5134 259.6004 15.06440517143264
STARLINK-2125           
1 47725U 21017D   23265.34728305  .00000126  00000+0  27359-4 0  9994
2 47725  53.0537 278.9250 0001471 108.7488 251.3661 15.06395661142319
STARLINK-2126           
1 47726U 21017E   23265.31952502  .00019131  00000+0  12525-2 0  9993
2 47726  53.0547 278.9143 0002803  51.1874 308.9365 15.07772053142306
STARLINK-2129           
1 47727U 21017F   23265.21733311  .00024662  00000+0  16659-2 0  9995
2 47727  53.0538 199.5068 0001363  96.0956 264.0189 15.06463610143447
STARLINK-2131           
1 47728U 21017G   23265.50578518  .00003344  00000+0  24327-3 0  9990
2 47728  53.0549 278.2123 0001521  87.6340 272.4823 15.06405584142393
STARLINK-2132           
1 47729U 21017H   23265.20312378  .00022351  00000+0  15142-2 0  9991
2 47729  53.0541 224.7755 0001386  90.1512 269.9635 15.06411623143059
STARLINK-2140           
1 47730U 21017J   23265.46202490  .00012188  00000+0  83590-3 0  9994
2 47730  53.0546 293.4202 0001542 100.3718 259.7444 15.06390645142124
STARLINK-2141           
1 47731U 21017K   23265.40167082  .00015468  00000+0  10547-2 0  9991
2 47731  53.0530 288.6814 0001406  91.5435 268.5715 15.06410945142191
STARLINK-2142           
1 47732U 21017L   23265.24180855  .00016500  00000+0  11230-2 0  9995
2 47732  53.0533 204.6380 0001426 101.2045 258.9104 15.06434177143356
STARLINK-2143           
1 47733U 21017M   23265.52237917  .00017756  00000+0  12071-2 0  9997
2 47733  53.0543 298.1402 0001370  88.8607 271.2539 15.06424194142114
STARLINK-2144           
1 47734U 21017N   23265.34269939  .00011527  00000+0  79145-3 0  9993
2 47734  53.0545 288.9455 0001364  99.7864 260.3279 15.06401839142190
STARLINK-2146           
1 47735U 21017P   23265.15979751  .00036936  00000+0  24820-2 0  9993
2 47735  53.0538 214.9321 0001373  83.6661 276.4484 15.06453387143193
STARLINK-2147           
1 47736U 21017Q   23265.50948473  .00013165  00000+0  90074-3 0  9994
2 47736  53.0534 278.1974 0001512  89.6355 270.4807 15.06413327142391
STARLINK-2148           
1 47737U 21017R   23265.56667090  .00000084  00000+0  13312-4 0  9991
2 47737  53.0536 103.7843 0001003  86.3885 273.7231 15.35416886144865
STARLINK-2149           
1 47738U 21017S   23265.35101772  .00006542  00000+0  45764-3 0  9999
2 47738  53.0544 279.1776 0001386 103.7595 256.3549 15.06402671142361
STARLINK-2150           
1 47739U 21017T   23265.50533472  .00014465  00000+0  98753-3 0  9992
2 47739  53.0534 303.2155 0001477  85.0654 275.0504 15.06416304142042
STARLINK-2152           
1 47740U 21017U   23265.35373772 -.00000752  00000+0 -31627-4 0  9996
2 47740  53.0542 288.8947 0001166  90.4470 269.6652 15.06393298142220
STARLINK-2154           
1 47741U 21017V   23265.50118728  .00018307  00000+0  12441-2 0  9996
2 47741  53.0541 288.2363 0001361  88.8783 271.2362 15.06419177142201
STARLINK-2156           
1 47742U 21017W   23265.51317495  .00014474  00000+0  98832-3 0  9990
2 47742  53.0530 278.1809 0001536  92.1347 267.9818 15.06410525142397
STARLINK-2157           
1 47743U 21017X   23265.33993118  .00016546  00000+0  11268-2 0  9992
2 47743  53.0541 278.9584 0001375  90.4251 269.6896 15.06409699142344
STARLINK-2158           
1 47744U 21017Y   23265.51221300  .00018571  00000+0  12623-2 0  9996
2 47744  53.0531 278.1355 0001358  99.1715 260.9428 15.06402261142392
STARLINK-2159           
1 47745U 21017Z   23265.34637864  .00007599  00000+0  52842-3 0  9990
2 47745  53.0552 288.9299 0001526 103.0368 257.0791 15.06403412142173
STARLINK-2160           
1 47746U 21017AA  23265.33901131  .00006954  00000+0  48525-3 0  9998
2 47746  53.0537 288.9624 0001523  83.9087 276.2075 15.06401145142168
STARLINK-2161           
1 47747U 21017AB  23265.26989118  .00016132  00000+0  10994-2 0  9999
2 47747  53.0541 279.2726 0001437 103.3838 256.7311 15.06399934142332
STARLINK-2162           
1 47748U 21017AC  23265.46154855  .00034957  00000+0  23501-2 0  9997
2 47748  53.0539 278.4082 0001214  99.0689 261.0437 15.06462870142332
STARLINK-2163           
1 47749U 21017AD  23265.27727513  .00014440  00000+0  98619-3 0  9992
2 47749  53.0538 279.2415 0001351  96.7018 263.4125 15.06403580142303
STARLINK-2164           
1 47750U 21017AE  23265.32150698  .00016512  00000+0  11245-2 0  9995
2 47750  53.0534 279.0406 0001599  96.9976 263.1195 15.06410450142317
